COSMOS 2493 (SKRL-756 1)
1 39490U 13078A   26068.88109627  .00005252  00000+0  40276-3 0  9992
2 39490  82.4165 358.3033 0011855 214.7485 145.2966 15.01584319663059
STARLINK-6374           
1 57338U 23099L   26068.54198186 -.00000326  00000+0 -90896-5 0  9992
2 57338  43.0042 249.8327 0001243 266.1920  93.8780 15.02534475146093
